NORAD_CAT_ID,OBJECT_NAME,OBJECT_TYPE,EPOCH,MEAN_MOTION,ECCENTRICITY,INCLINATION,RA_OF_ASC_NODE,ARG_OF_PERICENTER,MEAN_ANOMALY,BSTAR,MEAN_MOTION_DOT,MEAN_MOTION_DDOT,TLE_LINE0,TLE_LINE1,TLE_LINE2,SEMIMAJOR_AXIS,PERIOD,APOGEE,PERIGEE,DECAYED
53617.0,STARLINK-4601,PAYLOAD,2024-08-14 10:27:41,15.08848086,0.0001749,53.2158,283.1038,96.8951,263.224,0.0010525,0.00016506,0.0,0 STARLINK-4601,1 53617U 22104AF  24227.43589231  .00016506  00000-0  10525-2 0  9996,2 53617  53.2158 283.1038 0001749  96.8951 263.2240 15.08848086109245,6917.856,95.437,540.931,538.511,0.0
53617.0,STARLINK-4601,PAYLOAD,2024-08-15 10:18:28,15.08841634,0.0001481,53.2173,278.6422,99.7303,260.3856,0.00023525,3.458e-05,0.0,0 STARLINK-4601,1 53617U 22104AF  24228.42949324  .00003458  00000-0  23525-3 0  9996,2 53617  53.2173 278.6422 0001481  99.7303 260.3856 15.08841634109393,6917.875,95.437,540.765,538.716,0.0
53617.0,STARLINK-4601,PAYLOAD,2024-08-15 19:50:47,15.08839986,0.000141,53.2165,276.8579,98.3658,261.7494,2.4937e-05,1.09e-06,0.0,0 STARLINK-4601,1 53617U 22104AF  24228.82693337  .00000109  00000-0  24937-4 0  9999,2 53617  53.2165 276.8579 0001410  98.3658 261.7494 15.08839986108880,6917.88,95.438,540.721,538.77,0.0
53617.0,STARLINK-4601,PAYLOAD,2024-08-16 10:09:15,15.088365,0.0001365,53.2166,274.1807,98.0573,262.0574,3.3563e-05,2.46e-06,0.0,0 STARLINK-4601,1 53617U 22104AF  24229.42309710  .00000246  00000-0  33563-4 0  9992,2 53617  53.2166 274.1807 0001365  98.0573 262.0574 15.08836500109544,6917.891,95.438,540.7,538.812,0.0
53617.0,STARLINK-4601,PAYLOAD,2024-08-17 02:03:07,15.08837832,0.0001328,53.2164,271.2082,97.6508,262.4635,9.5542e-05,1.233e-05,0.0,0 STARLINK-4601,1 53617U 22104AF  24230.08549836  .00001233  00000-0  95542-4 0  9993,2 53617  53.2164 271.2082 0001328  97.6508 262.4635 15.08837832109076,6917.887,95.438,540.671,538.833,0.0
53617.0,STARLINK-4601,PAYLOAD,2024-08-17 08:24:39,15.08838452,0.000136,53.2164,270.0187,96.0667,264.048,9.4991e-05,1.224e-05,0.0,0 STARLINK-4601,1 53617U 22104AF  24230.35045876  .00001224  00000-0  94991-4 0  9995,2 53617  53.2164 270.0187 0001360  96.0667 264.0480 15.08838452109686,6917.885,95.438,540.691,538.809,0.0
53617.0,STARLINK-4601,PAYLOAD,2024-08-18 09:50:49,15.08848317,0.0001402,53.2164,265.2609,89.3455,270.7697,0.00024552,3.623e-05,0.0,0 STARLINK-4601,1 53617U 22104AF  24231.41029484  .00003623  00000-0  24552-3 0  9990,2 53617  53.2164 265.2609 0001402  89.3455 270.7697 15.08848317109278,6917.855,95.437,540.69,538.75,0.0
53617.0,STARLINK-4601,PAYLOAD,2024-08-19 11:16:59,15.08840116,0.0001386,53.2159,260.5033,96.9904,263.1246,5.6928e-05,6.18e-06,0.0,0 STARLINK-4601,1 53617U 22104AF  24232.47013801  .00000618  00000-0  56928-4 0  9997,2 53617  53.2159 260.5033 0001386  96.9904 263.1246 15.08840116109438,6917.88,95.438,540.704,538.786,0.0
53617.0,STARLINK-4601,PAYLOAD,2024-08-20 07:57:00,15.0884645,0.000139,53.2166,256.6382,95.7628,264.3522,7.1855e-05,8.56e-06,0.0,0 STARLINK-4601,1 53617U 22104AF  24233.33125493  .00000856  00000-0  71855-4 0  9994,2 53617  53.2166 256.6382 0001390  95.7628 264.3522 15.08846450110130,6917.861,95.437,540.687,538.764,0.0
53617.0,STARLINK-4601,PAYLOAD,2024-08-21 04:37:01,15.08841144,0.0001364,53.2165,252.7715,97.9658,262.1489,8.6667e-05,1.092e-05,0.0,0 STARLINK-4601,1 53617U 22104AF  24234.19237727  .00001092  00000-0  86667-4 0  9993,2 53617  53.2165 252.7715 0001364  97.9658 262.1489 15.08841144109696,6917.877,95.437,540.685,538.798,0.0
53617.0,STARLINK-4601,PAYLOAD,2024-08-21 10:58:33,15.08843676,0.0001363,53.2164,251.5816,98.6141,261.5006,0.00010267,1.347e-05,0.0,0 STARLINK-4601,1 53617U 22104AF  24234.45733487  .00001347  00000-0  10267-3 0  9991,2 53617  53.2164 251.5816 0001363  98.6141 261.5006 15.08843676110308,6917.869,95.437,540.677,538.791,0.0
